{
    "CCSDS_OMM_VERS": "3.0",
    "COMMENT": "GENERATED VIA SPACE-TRACK.ORG API",
    "CREATION_DATE": "2025-11-23T22:56:29",
    "ORIGINATOR": "18 SPCS",
    "OBJECT_NAME": "BEIDOU 6",
    "OBJECT_ID": "2010-057A",
    "CENTER_NAME": "EARTH",
    "REF_FRAME": "TEME",
    "TIME_SYSTEM": "UTC",
    "MEAN_ELEMENT_THEORY": "SGP4",
    "EPOCH": "2025-11-23T19:56:37.643136",
    "MEAN_MOTION": "1.00272788",
    "ECCENTRICITY": "0.00103230",
    "INCLINATION": "3.1349",
    "RA_OF_ASC_NODE": "69.9912",
    "ARG_OF_PERICENTER": "185.5272",
    "MEAN_ANOMALY": "266.7580",
    "EPHEMERIS_TYPE": "0",
    "CLASSIFICATION_TYPE": "U",
    "NORAD_CAT_ID": "37210",
    "ELEMENT_SET_NO": "999",
    "REV_AT_EPOCH": "5523",
    "BSTAR": "0.00000000000000",
    "MEAN_MOTION_DOT": "-0.00000091",
    "MEAN_MOTION_DDOT": "0.0000000000000",
    "SEMIMAJOR_AXIS": "42164.451",
    "PERIOD": "1436.083",
    "APOAPSIS": "35829.842",
    "PERIAPSIS": "35742.789",
    "OBJECT_TYPE": "PAYLOAD",
    "RCS_SIZE": "LARGE",
    "COUNTRY_CODE": "PRC",
    "LAUNCH_DATE": "2010-10-31",
    "SITE": "XSC",
    "DECAY_DATE": null,
    "FILE": "4896276",
    "GP_ID": "303349894",
    "TLE_LINE0": "0 BEIDOU 6",
    "TLE_LINE1": "1 37210U 10057A   25327.83099124 -.00000091  00000-0  00000+0 0  9991",
    "TLE_LINE2": "2 37210   3.1349  69.9912 0010323 185.5272 266.7580  1.00272788 55234"
}